OBJECT_NAME,OBJECT_ID,EPOCH,MEAN_MOTION,ECCENTRICITY,INCLINATION,RA_OF_ASC_NODE,ARG_OF_PERICENTER,MEAN_ANOMALY,EPHEMERIS_TYPE,CLASSIFICATION_TYPE,NORAD_CAT_ID,ELEMENT_SET_NO,REV_AT_EPOCH,BSTAR,MEAN_MOTION_DOT,MEAN_MOTION_DDOT
ONEWEB-0606,2022-166AE,2026-07-01T02:06:38.122272,13.21824515,.0002053,87.9244,241.2332,101.3993,258.7371,0,U,54670,999,17340,.1132E-4,.18E-6,0
ONEWEB-0607,2022-166AF,2026-07-01T03:07:13.360800,13.21824747,.000189,87.9252,241.1972,95.1808,264.9542,0,U,54671,999,17338,.69095E-4,.42E-6,0
ONEWEB-0608,2022-166AG,2026-07-01T03:16:51.140064,13.21828361,.0001998,87.9251,241.1930,82.2526,277.8835,0,U,54672,999,17339,.45235E-5,.15E-6,0
ONEWEB-0610,2022-166AH,2026-07-01T02:47:50.644032,13.21824665,.0001672,87.9245,241.2097,81.5306,278.6017,0,U,54673,999,17329,.12091E-3,.63E-6,0
ONEWEB-0611,2022-166AJ,2026-07-01T02:38:07.518336,13.21825080,.0002113,87.9245,241.2068,100.8214,259.3157,0,U,54674,999,17328,.25173E-3,.117E-5,0
ONEWEB-0612,2022-166AK,2026-07-01T02:57:32.031360,13.21825620,.0001979,87.9256,241.2014,92.4562,267.6798,0,U,54675,999,17327,.17177E-3,.84E-6,0
ONEWEB-0615,2022-166AL,2026-07-01T04:17:27.168288,13.21827906,.0002108,87.9247,241.2036,105.1892,254.9475,0,U,54676,999,17329,-.16322E-3,-.54E-6,0
ONEWEB-0655,2022-166AM,2026-07-01T01:54:31.995072,13.21827338,.0001756,87.9246,241.2239,96.9553,263.1780,0,U,54677,999,17327,.29127E-4,.25E-6,0
ONEWEB-0659,2022-166AN,2026-07-01T02:18:45.472032,13.21828594,.0002113,87.9244,241.2207,97.2182,262.9192,0,U,54678,999,17336,.15819E-3,.78E-6,0
ONEWEB-0685,2022-166AP,2026-07-01T02:18:33.949728,13.21847665,.0001845,87.9241,241.2129,88.4167,271.7178,0,U,54679,999,17325,.1363E-3,.69E-6,0
ONEWEB-0712,2022-166AQ,2026-07-01T02:52:00.956928,13.16595046,.0001587,87.9088,226.0079,101.7150,258.4159,0,U,54680,999,17389,.29883E-3,.127E-5,0
ONEWEB-0714,2022-166AR,2026-07-01T02:26:02.446080,13.21824916,.0001826,87.9246,241.2089,103.9812,256.1525,0,U,54681,999,17337,.12823E-3,.66E-6,0
ONEWEB-0532,2023-004A,2026-07-01T00:06:50.611680,13.17647879,.0002153,87.9130,3.1149,84.1648,275.9729,0,U,55140,999,16940,.4842E-4,.32E-6,0
ONEWEB-0533,2023-004B,2026-07-01T04:19:19.333632,13.12441811,.0001694,87.8951,347.8873,87.9658,272.1665,0,U,55141,999,16989,-.11623E-2,-.405E-5,0
ONEWEB-0541,2023-004C,2026-07-01T01:38:22.632864,13.11416655,.0002011,87.8888,18.2950,90.1310,270.0048,0,U,55142,999,16776,.13284E-2,.484E-5,0
ONEWEB-0543,2023-004D,2026-07-01T03:00:12.928032,13.18684104,.0001774,87.9172,332.6960,99.8758,260.2575,0,U,55143,999,17153,.12001E-2,.486E-5,0
ONEWEB-0544,2023-004E,2026-07-01T02:50:30.146208,13.18684467,.0001802,87.9174,332.6971,109.5746,250.5580,0,U,55144,999,17153,.12216E-2,.495E-5,0
ONEWEB-0560,2023-004F,2026-07-01T02:40:46.259328,13.18688495,.0001847,87.9174,332.6876,104.9838,255.1498,0,U,55145,999,17154,.44432E-5,.15E-6,0
ONEWEB-0565,2023-004G,2026-07-01T04:20:21.012864,13.18685738,.0002231,87.9165,332.7006,100.2153,259.9231,0,U,55146,999,17154,-.12938E-4,.8E-7,0
ONEWEB-0567,2023-004H,2026-07-01T04:10:38.092800,13.18686286,.0002129,87.9174,332.6874,103.1758,256.9612,0,U,55147,999,17154,-.49986E-4,-.7E-7,0
ONEWEB-0569,2023-004J,2026-07-01T02:25:24.259008,13.13470481,.0002263,87.8978,317.4509,121.9642,238.1707,0,U,55148,999,17200,-.94168E-3,-.331E-5,0
ONEWEB-0570,2023-004K,2026-07-01T03:58:29.224992,13.18685997,.0002225,87.9171,332.6868,90.2602,269.8785,0,U,55149,999,17153,.62344E-4,.37E-6,0
ONEWEB-0571,2023-004L,2026-07-01T03:48:46.806048,13.18684650,.0002857,87.9173,332.6876,114.3866,245.7565,0,U,55150,999,17154,-.17335E-3,-.55E-6,0
ONEWEB-0572,2023-004M,2026-07-01T00:51:49.186080,13.17639926,.000193,87.9135,3.1099,91.6712,268.4640,0,U,55151,999,16930,-.30938E-2,-.1188E-4,0
ONEWEB-0573,2023-004N,2026-07-01T03:39:03.344256,13.18686403,.0002642,87.9173,332.6905,106.8097,253.3325,0,U,55152,999,17153,-.51359E-4,-.7E-7,0
ONEWEB-0588,2023-004P,2026-07-01T03:29:21.503328,13.18685512,.0002339,87.9171,332.6916,90.0098,270.1302,0,U,55153,999,17153,-.15596E-3,-.49E-6,0
ONEWEB-0598,2023-004Q,2026-07-01T01:06:37.506816,13.11417774,.0002192,87.8880,18.3089,106.5669,253.5700,0,U,55154,999,16771,-.88654E-3,-.302E-5,0
ONEWEB-0599,2023-004R,2026-06-30T23:55:54.949728,13.17649559,.0001724,87.9132,3.1158,95.2805,264.8523,0,U,55155,999,16930,.28278E-4,.24E-6,0
ONEWEB-0614,2023-004S,2026-07-01T00:59:17.549376,13.11417384,.0001907,87.8877,18.3185,81.0770,279.0574,0,U,55156,999,16765,-.1553E-2,-.538E-5,0
ONEWEB-0616,2023-004T,2026-07-01T04:35:21.793344,13.17649992,.0001111,87.9135,3.0813,113.6416,246.4832,0,U,55157,999,16954,-.4917E-4,-.6E-7,0
