ONEWEB-0606             
1 54670U 22166AE  26182.08794123  .00000018  00000+0  11320-4 0  9991
2 54670  87.9244 241.2332 0002053 101.3993 258.7371 13.21824515173401
ONEWEB-0607             
1 54671U 22166AF  26182.13001575  .00000042  00000+0  69095-4 0  9999
2 54671  87.9252 241.1972 0001890  95.1808 264.9542 13.21824747173386
ONEWEB-0608             
1 54672U 22166AG  26182.13670301  .00000015  00000+0  45235-5 0  9990
2 54672  87.9251 241.1930 0001998  82.2526 277.8835 13.21828361173398
ONEWEB-0610             
1 54673U 22166AH  26182.11655838  .00000063  00000+0  12091-3 0  9992
2 54673  87.9245 241.2097 0001672  81.5306 278.6017 13.21824665173297
ONEWEB-0611             
1 54674U 22166AJ  26182.10980924  .00000117  00000+0  25173-3 0  9994
2 54674  87.9245 241.2068 0002113 100.8214 259.3157 13.21825080173282
ONEWEB-0612             
1 54675U 22166AK  26182.12328740  .00000084  00000+0  17177-3 0  9997
2 54675  87.9256 241.2014 0001979  92.4562 267.6798 13.21825620173279
ONEWEB-0615             
1 54676U 22166AL  26182.17878667 -.00000054  00000+0 -16322-3 0  9991
2 54676  87.9247 241.2036 0002108 105.1892 254.9475 13.21827906173299
ONEWEB-0655             
1 54677U 22166AM  26182.07953698  .00000025  00000+0  29127-4 0  9993
2 54677  87.9246 241.2239 0001756  96.9553 263.1780 13.21827338173271
ONEWEB-0659             
1 54678U 22166AN  26182.09635963  .00000078  00000+0  15819-3 0  9998
2 54678  87.9244 241.2207 0002113  97.2182 262.9192 13.21828594173364
ONEWEB-0685             
1 54679U 22166AP  26182.09622627  .00000069  00000+0  13630-3 0  9991
2 54679  87.9241 241.2129 0001845  88.4167 271.7178 13.21847665173251
ONEWEB-0712             
1 54680U 22166AQ  26182.11945552  .00000127  00000+0  29883-3 0  9993
2 54680  87.9088 226.0079 0001587 101.7150 258.4159 13.16595046173899
ONEWEB-0714             
1 54681U 22166AR  26182.10141720  .00000066  00000+0  12823-3 0  9996
2 54681  87.9246 241.2089 0001826 103.9812 256.1525 13.21824916173373
ONEWEB-0532             
1 55140U 23004A   26182.00475245  .00000032  00000+0  48420-4 0  9996
2 55140  87.9130   3.1149 0002153  84.1648 275.9729 13.17647879169409
ONEWEB-0533             
1 55141U 23004B   26182.18008488 -.00000405  00000+0 -11623-2 0  9996
2 55141  87.8951 347.8873 0001694  87.9658 272.1665 13.12441811169897
ONEWEB-0541             
1 55142U 23004C   26182.06831751  .00000484  00000+0  13284-2 0  9991
2 55142  87.8888  18.2950 0002011  90.1310 270.0048 13.11416655167760
ONEWEB-0543             
1 55143U 23004D   26182.12514963  .00000486  00000+0  12001-2 0  9990
2 55143  87.9172 332.6960 0001774  99.8758 260.2575 13.18684104171538
ONEWEB-0544             
1 55144U 23004E   26182.11840447  .00000495  00000+0  12216-2 0  9997
2 55144  87.9174 332.6971 0001802 109.5746 250.5580 13.18684467171531
ONEWEB-0560             
1 55145U 23004F   26182.11164652  .00000015  00000+0  44432-5 0  9991
2 55145  87.9174 332.6876 0001847 104.9838 255.1498 13.18688495171541
ONEWEB-0565             
1 55146U 23004G   26182.18079876  .00000008  00000+0 -12938-4 0  9990
2 55146  87.9165 332.7006 0002231 100.2153 259.9231 13.18685738171549
ONEWEB-0567             
1 55147U 23004H   26182.17405200 -.00000007  00000+0 -49986-4 0  9997
2 55147  87.9174 332.6874 0002129 103.1758 256.9612 13.18686286171540
ONEWEB-0569             
1 55148U 23004J   26182.10097522 -.00000331  00000+0 -94168-3 0  9996
2 55148  87.8978 317.4509 0002263 121.9642 238.1707 13.13470481172009
ONEWEB-0570             
1 55149U 23004K   26182.16561603  .00000037  00000+0  62344-4 0  9992
2 55149  87.9171 332.6868 0002225  90.2602 269.8785 13.18685997171534
ONEWEB-0571             
1 55150U 23004L   26182.15887507 -.00000055  00000+0 -17335-3 0  9998
2 55150  87.9173 332.6876 0002857 114.3866 245.7565 13.18684650171543
ONEWEB-0572             
1 55151U 23004M   26182.03598595 -.00001188  00000+0 -30938-2 0  9993
2 55151  87.9135   3.1099 0001930  91.6712 268.4640 13.17639926169309
ONEWEB-0573             
1 55152U 23004N   26182.15212204 -.00000007  00000+0 -51359-4 0  9998
2 55152  87.9173 332.6905 0002642 106.8097 253.3325 13.18686403171538
ONEWEB-0588             
1 55153U 23004P   26182.14538777 -.00000049  00000+0 -15596-3 0  9992
2 55153  87.9171 332.6916 0002339  90.0098 270.1302 13.18685512171539
ONEWEB-0598             
1 55154U 23004Q   26182.04626744 -.00000302  00000+0 -88654-3 0  9991
2 55154  87.8880  18.3089 0002192 106.5669 253.5700 13.11417774167717
ONEWEB-0599             
1 55155U 23004R   26181.99716377  .00000024  00000+0  28278-4 0  9993
2 55155  87.9132   3.1158 0001724  95.2805 264.8523 13.17649559169303
ONEWEB-0614             
1 55156U 23004S   26182.04117534 -.00000538  00000+0 -15530-2 0  9998
2 55156  87.8877  18.3185 0001907  81.0770 279.0574 13.11417384167657
ONEWEB-0616             
1 55157U 23004T   26182.19122446 -.00000006  00000+0 -49170-4 0  9992
2 55157  87.9135   3.0813 0001111 113.6416 246.4832 13.17649992169544
